BEIDOU-3 M22 (C44)      
1 44793U 19078A   25327.96589316 -.00000049  00000+0  00000+0 0  9990
2 44793  54.1258 307.0451 0005450  22.0165 338.0006  1.86232081 40829
BEIDOU-3 M21 (C43)      
1 44794U 19078B   25327.02921203 -.00000055  00000+0  00000+0 0  9990
2 44794  54.0996 307.0434 0003705   8.6621 351.3358  1.86227813 40811
BEIDOU-3 M19 (C41)      
1 44864U 19090A   25327.85173492 -.00000024  00000+0  00000+0 0  9998
2 44864  56.3767  69.5887 0017230 284.2247 102.8142  1.86231510 40411
BEIDOU-3 M20 (C42)      
1 44865U 19090B   25327.68192366 -.00000025  00000+0  00000+0 0  9992
2 44865  56.3782  69.6286 0014344 297.2251  65.5789  1.86231503 40396
BEIDOU-3 G2 (C60)       
1 45344U 20017A   25328.17191262 -.00000122  00000+0  00000+0 0  9993
2 45344   2.9647  43.3910 0003953 266.3593 255.6030  1.00272335 21203
BEIDOU-3 G3 (C61)       
1 45807U 20040A   25327.32184271 -.00000333  00000+0  00000+0 0  9995
2 45807   1.9416  66.4166 0004935 312.9398 269.6397  1.00273178 20005
BEIDOU-3 G4 (C62)       
1 56564U 23066A   25328.11644561 -.00000090  00000+0  00000+0 0  9999
2 56564   0.8582 300.4783 0003709 226.2788  98.5743  1.00272350  9331
BEIDOU-3 M28 (C50)      
1 58654U 23207A   25328.18148797 -.00000024  00000+0  00000+0 0  9992
2 58654  55.5684  69.2301 0001674 259.1179 100.8694  1.86229775 13027
BEIDOU-3 M26 (C48)      
1 58655U 23207B   25327.44232330 -.00000029  00000+0  00000+0 0  9993
2 58655  55.5701  69.2412 0003159 245.9130 114.0567  1.86231313 12993
BEIDOU-3 M25 (C47)      
1 61186U 24168B   25327.23925269 -.00000054  00000+0  00000+0 0  9998
2 61186  54.6598 309.3964 0005585 292.3383  48.4542  1.86230276  7940
BEIDOU-3 M27 (C49)      
1 61187U 24168C   25326.52732064 -.00000059  00000+0  00000+0 0  9994
2 61187  54.6558 309.4047 0002240 324.8124  33.5984  1.86230426  5400
