[
    {
        "OBJECT_NAME": "BEIDOU-3 M22",
        "OBJECT_ID": "2019-078A",
        "EPOCH": "2025-11-23T23:10:53.169024",
        "MEAN_MOTION": 1.86232081,
        "ECCENTRICITY": 0.000545,
        "INCLINATION": 54.1258,
        "RA_OF_ASC_NODE": 307.0451,
        "ARG_OF_PERICENTER": 22.0165,
        "MEAN_ANOMALY": 338.0006,
        "EPHEMERIS_TYPE": 0,
        "CLASSIFICATION_TYPE": "U",
        "NORAD_CAT_ID": 44793,
        "ELEMENT_SET_NO": 999,
        "REV_AT_EPOCH": 4082,
        "BSTAR": 0,
        "MEAN_MOTION_DOT": -4.9e-07,
        "MEAN_MOTION_DDOT": 0
    },
    {
        "OBJECT_NAME": "BEIDOU-3 M21",
        "OBJECT_ID": "2019-078B",
        "EPOCH": "2025-11-23T00:42:03.919392",
        "MEAN_MOTION": 1.86227813,
        "ECCENTRICITY": 0.00037056,
        "INCLINATION": 54.0996,
        "RA_OF_ASC_NODE": 307.0434,
        "ARG_OF_PERICENTER": 8.6621,
        "MEAN_ANOMALY": 351.3358,
        "EPHEMERIS_TYPE": 0,
        "CLASSIFICATION_TYPE": "U",
        "NORAD_CAT_ID": 44794,
        "ELEMENT_SET_NO": 999,
        "REV_AT_EPOCH": 4081,
        "BSTAR": 0,
        "MEAN_MOTION_DOT": -5.5e-07,
        "MEAN_MOTION_DDOT": 0
    },
    {
        "OBJECT_NAME": "BEIDOU-3 M19",
        "OBJECT_ID": "2019-090A",
        "EPOCH": "2025-11-23T20:26:29.897088",
        "MEAN_MOTION": 1.8623151,
        "ECCENTRICITY": 0.001723,
        "INCLINATION": 56.3767,
        "RA_OF_ASC_NODE": 69.5887,
        "ARG_OF_PERICENTER": 284.2247,
        "MEAN_ANOMALY": 102.8142,
        "EPHEMERIS_TYPE": 0,
        "CLASSIFICATION_TYPE": "U",
        "NORAD_CAT_ID": 44864,
        "ELEMENT_SET_NO": 999,
        "REV_AT_EPOCH": 4041,
        "BSTAR": 0,
        "MEAN_MOTION_DOT": -2.4e-07,
        "MEAN_MOTION_DDOT": 0
    },
    {
        "OBJECT_NAME": "BEIDOU-3 M20",
        "OBJECT_ID": "2019-090B",
        "EPOCH": "2025-11-23T16:21:58.204224",
        "MEAN_MOTION": 1.86231503,
        "ECCENTRICITY": 0.0014344,
        "INCLINATION": 56.3782,
        "RA_OF_ASC_NODE": 69.6286,
        "ARG_OF_PERICENTER": 297.2251,
        "MEAN_ANOMALY": 65.5789,
        "EPHEMERIS_TYPE": 0,
        "CLASSIFICATION_TYPE": "U",
        "NORAD_CAT_ID": 44865,
        "ELEMENT_SET_NO": 999,
        "REV_AT_EPOCH": 4039,
        "BSTAR": 0,
        "MEAN_MOTION_DOT": -2.5e-07,
        "MEAN_MOTION_DDOT": 0
    },
    {
        "OBJECT_NAME": "BEIDOU-3 G2",
        "OBJECT_ID": "2020-017A",
        "EPOCH": "2025-11-24T04:07:33.250368",
        "MEAN_MOTION": 1.00272335,
        "ECCENTRICITY": 0.0003953,
        "INCLINATION": 2.9647,
        "RA_OF_ASC_NODE": 43.391,
        "ARG_OF_PERICENTER": 266.3593,
        "MEAN_ANOMALY": 255.603,
        "EPHEMERIS_TYPE": 0,
        "CLASSIFICATION_TYPE": "U",
        "NORAD_CAT_ID": 45344,
        "ELEMENT_SET_NO": 999,
        "REV_AT_EPOCH": 2120,
        "BSTAR": 0,
        "MEAN_MOTION_DOT": -1.22e-06,
        "MEAN_MOTION_DDOT": 0
    },
    {
        "OBJECT_NAME": "BEIDOU-3 G3",
        "OBJECT_ID": "2020-040A",
        "EPOCH": "2025-11-23T07:43:27.210144",
        "MEAN_MOTION": 1.00273178,
        "ECCENTRICITY": 0.0004935,
        "INCLINATION": 1.9416,
        "RA_OF_ASC_NODE": 66.4166,
        "ARG_OF_PERICENTER": 312.9398,
        "MEAN_ANOMALY": 269.6397,
        "EPHEMERIS_TYPE": 0,
        "CLASSIFICATION_TYPE": "U",
        "NORAD_CAT_ID": 45807,
        "ELEMENT_SET_NO": 999,
        "REV_AT_EPOCH": 2000,
        "BSTAR": 0,
        "MEAN_MOTION_DOT": -3.33e-06,
        "MEAN_MOTION_DDOT": 0
    },
    {
        "OBJECT_NAME": "BEIDOU-3 G4",
        "OBJECT_ID": "2023-066A",
        "EPOCH": "2025-11-24T02:47:40.900704",
        "MEAN_MOTION": 1.0027235,
        "ECCENTRICITY": 0.0003709,
        "INCLINATION": 0.8582,
        "RA_OF_ASC_NODE": 300.4783,
        "ARG_OF_PERICENTER": 226.2788,
        "MEAN_ANOMALY": 98.5743,
        "EPHEMERIS_TYPE": 0,
        "CLASSIFICATION_TYPE": "U",
        "NORAD_CAT_ID": 56564,
        "ELEMENT_SET_NO": 999,
        "REV_AT_EPOCH": 933,
        "BSTAR": 0,
        "MEAN_MOTION_DOT": -9e-07,
        "MEAN_MOTION_DDOT": 0
    },
    {
        "OBJECT_NAME": "BEIDOU-3 M28",
        "OBJECT_ID": "2023-207A",
        "EPOCH": "2025-11-24T04:21:20.560608",
        "MEAN_MOTION": 1.86229775,
        "ECCENTRICITY": 0.0001674,
        "INCLINATION": 55.5684,
        "RA_OF_ASC_NODE": 69.2301,
        "ARG_OF_PERICENTER": 259.1179,
        "MEAN_ANOMALY": 100.8694,
        "EPHEMERIS_TYPE": 0,
        "CLASSIFICATION_TYPE": "U",
        "NORAD_CAT_ID": 58654,
        "ELEMENT_SET_NO": 999,
        "REV_AT_EPOCH": 1302,
        "BSTAR": 0,
        "MEAN_MOTION_DOT": -2.4e-07,
        "MEAN_MOTION_DDOT": 0
    },
    {
        "OBJECT_NAME": "BEIDOU-3 M26",
        "OBJECT_ID": "2023-207B",
        "EPOCH": "2025-11-23T10:36:56.733120",
        "MEAN_MOTION": 1.86231313,
        "ECCENTRICITY": 0.0003159,
        "INCLINATION": 55.5701,
        "RA_OF_ASC_NODE": 69.2412,
        "ARG_OF_PERICENTER": 245.913,
        "MEAN_ANOMALY": 114.0567,
        "EPHEMERIS_TYPE": 0,
        "CLASSIFICATION_TYPE": "U",
        "NORAD_CAT_ID": 58655,
        "ELEMENT_SET_NO": 999,
        "REV_AT_EPOCH": 1299,
        "BSTAR": 0,
        "MEAN_MOTION_DOT": -2.9e-07,
        "MEAN_MOTION_DDOT": 0
    },
    {
        "OBJECT_NAME": "BEIDOU-3 M25",
        "OBJECT_ID": "2024-168B",
        "EPOCH": "2025-11-23T05:44:31.432416",
        "MEAN_MOTION": 1.86230276,
        "ECCENTRICITY": 0.0005585,
        "INCLINATION": 54.6598,
        "RA_OF_ASC_NODE": 309.3964,
        "ARG_OF_PERICENTER": 292.3383,
        "MEAN_ANOMALY": 48.4542,
        "EPHEMERIS_TYPE": 0,
        "CLASSIFICATION_TYPE": "U",
        "NORAD_CAT_ID": 61186,
        "ELEMENT_SET_NO": 999,
        "REV_AT_EPOCH": 794,
        "BSTAR": 0,
        "MEAN_MOTION_DOT": -5.4e-07,
        "MEAN_MOTION_DDOT": 0
    },
    {
        "OBJECT_NAME": "BEIDOU-3 M27",
        "OBJECT_ID": "2024-168C",
        "EPOCH": "2025-11-22T12:39:20.503296",
        "MEAN_MOTION": 1.86230426,
        "ECCENTRICITY": 0.00022401,
        "INCLINATION": 54.6558,
        "RA_OF_ASC_NODE": 309.4047,
        "ARG_OF_PERICENTER": 324.8124,
        "MEAN_ANOMALY": 33.5984,
        "EPHEMERIS_TYPE": 0,
        "CLASSIFICATION_TYPE": "U",
        "NORAD_CAT_ID": 61187,
        "ELEMENT_SET_NO": 999,
        "REV_AT_EPOCH": 540,
        "BSTAR": 0,
        "MEAN_MOTION_DOT": -5.9e-07,
        "MEAN_MOTION_DDOT": 0
    }
]